H1 CPF 01  gfz 2021 04 09 12  5992 tandemx   
H2 1003001  6202 36605    2021 04 09 12 59 42 2021 04 14 00 00 42   120 1 1  0 0 0
H9
10 0 59314  76302.000000  0    2499056.639  -3745331.101   5203415.957
10 0 59314  76422.000000  0    1923462.075  -3267392.465   5740843.316
10 0 59314  76542.000000  0    1323233.192  -2722100.998   6177299.724
10 0 59314  76662.000000  0     709958.675  -2118666.261   6505146.467
10 0 59314  76782.000000  0      95274.471  -1467507.170   6718652.022
10 0 59314  76902.000000  0    -509356.852   -780069.706   6814086.547
10 0 59314  77022.000000  0   -1092858.791    -68624.008   6789783.111
10 0 59314  77142.000000  0   -1644743.083    653954.529   6646164.813
10 0 59314  77262.000000  0   -2155297.694   1374417.713   6385737.783
10 0 59314  77382.000000  0   -2615758.096   2079386.533   6013050.194
10 0 59314  77502.000000  0   -3018458.912   2755599.419   5534617.979
10 0 59314  77622.000000  0   -3356964.323   3390163.379   4958817.439
10 0 59314  77742.000000  0   -3626174.979   3970802.809   4295744.546
10 0 59314  77862.000000  0   -3822408.343   4486102.089   3557042.735
10 0 59314  77982.000000  0   -3943450.712   4925736.353   2755700.745
10 0 59314  78102.000000  0   -3988579.496   5280684.586   1905822.873
10 0 59314  78222.000000  0   -3958554.166   5543418.993   1022377.100
10 0 59314  78342.000000  0   -3855577.838   5708067.270    120926.420
10 0 59314  78462.000000  0   -3683229.815   5770544.243   -782653.679
10 0 59314  78582.000000  0   -3446368.372   5728646.369  -1672465.534
10 0 59314  78702.000000  0   -3151007.427   5582106.891  -2532878.874
10 0 59314  78822.000000  0   -2804169.522   5332611.696  -3348811.267
10 0 59314  78942.000000  0   -2413722.825   4983776.091  -4105995.485
10 0 59314  79062.000000  0   -1988204.243   4541083.217  -4791228.245
10 0 59314  79182.000000  0   -1536633.724   4011787.572  -5392594.241
10 0 59314  79302.000000  0   -1068325.086   3404787.947  -5899665.417
10 0 59314  79422.000000  0    -592695.696   2730469.952  -6303673.011
10 0 59314  79542.000000  0    -119079.370   2000522.163  -6597647.571
10 0 59314  79662.000000  0     343452.538   1227731.952  -6776527.508
10 0 59314  79782.000000  0     786260.066    425763.072  -6837237.776
10 0 59314  79902.000000  0    1201292.397   -391081.814  -6778737.107
10 0 59314  80022.000000  0    1581230.279  -1208111.163  -6602032.641
10 0 59314  80142.000000  0    1919611.561  -2010501.458  -6310163.704
10 0 59314  80262.000000  0    2210939.778  -2783559.106  -5908155.822
10 0 59314  80382.000000  0    2450773.428  -3512985.295  -5402944.957
10 0 59314  80502.000000  0    2635795.429  -4185141.492  -4803268.811
10 0 59314  80622.000000  0    2763859.526  -4787305.712  -4119524.834
10 0 59314  80742.000000  0    2834013.602  -5307916.903  -3363601.071
10 0 59314  80862.000000  0    2846499.418  -5736805.650  -2548678.620
10 0 59314  80982.000000  0    2802728.276  -6065402.390  -1689006.319
10 0 59314  81102.000000  0    2705233.197  -6286918.985   -799652.689
10 0 59314  81222.000000  0    2557596.156  -6396497.711    103762.432
10 0 59314  81342.000000  0    2364352.853  -6391321.755   1005348.582
10 0 59314  81462.000000  0    2130878.341  -6270686.850   1889231.953
10 0 59314  81582.000000  0    1863254.716  -6036029.427   2739845.403
10 0 59314  81702.000000  0    1568124.993  -5690910.216   3542210.600
10 0 59314  81822.000000  0    1252537.195  -5240955.788   4282207.456
10 0 59314  81942.000000  0     923782.781  -4693759.995   4946825.486
10 0 59314  82062.000000  0     589233.203  -4058748.230   5524394.247
10 0 59314  82182.000000  0     256177.871  -3347004.733   6004787.048
10 0 59314  82302.000000  0     -68331.150  -2571069.322   6379592.945
10 0 59314  82422.000000  0    -377625.529  -1744710.615   6642256.827
10 0 59314  82542.000000  0    -665554.965   -882679.063   6788188.253
10 0 59314  82662.000000  0    -926607.720      -442.011   6814838.005
10 0 59314  82782.000000  0   -1156015.278    886094.634   6721740.074
10 0 59314  82902.000000  0   -1349839.007   1760872.843   6510518.932
10 0 59314  83022.000000  0   -1505037.739   2607972.634   6184863.014
10 0 59314  83142.000000  0   -1619515.803   3411902.163   5750464.277
10 0 59314  83262.000000  0   -1692150.168   4157882.880   5214923.910
10 0 59314  83382.000000  0   -1722796.353   4832125.722   4587626.309
10 0 59314  83502.000000  0   -1712273.518   5422093.456   3879579.678
10 0 59314  83622.000000  0   -1662327.762   5916742.390   3103226.081
10 0 59314  83742.000000  0   -1575576.314   6306738.209   2272223.585
10 0 59314  83862.000000  0   -1455431.825   6584641.751   1401203.605
10 0 59314  83982.000000  0   -1306007.711   6745058.550    505507.833
10 0 59314  84102.000000  0   -1132008.453   6784748.235   -399088.658
10 0 59314  84222.000000  0    -938607.323   6702692.910  -1296664.317
10 0 59314  84342.000000  0    -731313.578   6500117.831  -2171442.858
10 0 59314  84462.000000  0    -515834.603   6180464.396  -3008077.926
10 0 59314  84582.000000  0    -297936.384   5749320.895  -3791925.233
10 0 59314  84702.000000  0     -83304.837   5214313.528  -4509299.303
10 0 59314  84822.000000  0     122588.352   4584959.171  -5147709.777
10 0 59314  84942.000000  0     314612.564   3872484.754  -5696072.721
10 0 59314  85062.000000  0     488094.701   3089617.000  -6144894.472
10 0 59314  85182.000000  0     638922.337   2250347.762  -6486424.796
10 0 59314  85302.000000  0     763632.430   1369681.456  -6714778.817
10 0 59314  85422.000000  0     859484.155    463368.284  -6826028.447
10 0 59314  85542.000000  0     924514.509   -452373.286  -6818262.767
10 0 59314  85662.000000  0     957576.090  -1361141.092  -6691616.438
10 0 59314  85782.000000  0     958356.594  -2246634.835  -6448265.955
10 0 59314  85902.000000  0     927380.554  -3092940.060  -6092397.560
10 0 59314  86022.000000  0     865992.365  -3884810.910  -5630145.043
10 0 59314  86142.000000  0     776320.482  -4607944.288  -5069493.135
10 0 59314  86262.000000  0     661224.782  -5249239.948  -4420150.949
10 0 59314  86382.000000  0     524226.296  -5797044.607  -3693395.364
10 0 59315    102.000000  0     369420.858  -6241373.534  -2901883.843
10 0 59315    222.000000  0     201378.562  -6574104.200  -2059440.495
10 0 59315    342.000000  0      25031.026  -6789138.453  -1180817.132
10 0 59315    462.000000  0    -154451.380  -6882526.399   -281432.684
10 0 59315    582.000000  0    -331789.160  -6852548.255    622902.372
10 0 59315    702.000000  0    -501726.973  -6699752.814   1516270.713
10 0 59315    822.000000  0    -659167.236  -6426950.971   2382937.430
10 0 59315    942.000000  0    -799300.435  -6039162.698   3207637.009
10 0 59315   1062.000000  0    -917727.522  -5543517.837   3975850.608
10 0 59315   1182.000000  0   -1010573.314  -4949115.995   4674065.366
10 0 59315   1302.000000  0   -1074587.409  -4266850.184   5290013.508
10 0 59315   1422.000000  0   -1107229.614  -3509198.124   5812887.720
10 0 59315   1542.000000  0   -1106739.044  -2689983.550   6233528.157
10 0 59315   1662.000000  0   -1072184.084  -1824115.952   6544575.574
10 0 59315   1782.000000  0   -1003493.518   -927316.221   6740593.499
10 0 59315   1902.000000  0    -901469.281    -15829.072   6818158.672
10 0 59315   2022.000000  0    -767779.667    893871.685   6775916.987
10 0 59315   2142.000000  0    -604931.791   1785380.534   6614606.054
10 0 59315   2262.000000  0    -416224.523   2642655.790   6337042.986
10 0 59315   2382.000000  0    -205682.946   3450308.264   5948078.198
10 0 59315   2502.000000  0      22024.157   4193879.607   5454515.651
10 0 59315   2622.000000  0     261683.110   4860104.988   4864999.522
10 0 59315   2742.000000  0     507649.230   5437157.219   4189869.174
10 0 59315   2862.000000  0     753972.189   5914864.010   3440980.017
10 0 59315   2982.000000  0     994531.017   6284896.645   2631502.119
10 0 59315   3102.000000  0    1223178.428   6540930.208   1775685.155
10 0 59315   3222.000000  0    1433886.046   6678757.117    888601.676
10 0 59315   3342.000000  0    1620889.894   6696361.267    -14125.477
10 0 59315   3462.000000  0    1778831.721   6593947.087   -916606.436
10 0 59315   3582.000000  0    1902891.999   6373924.462  -1802971.982
10 0 59315   3702.000000  0    1988912.071   6040850.439  -2657659.787
10 0 59315   3822.000000  0    2033502.233   5601328.676  -3465693.667
10 0 59315   3942.000000  0    2034133.055   5063868.869  -4212949.675
10 0 59315   4062.000000  0    1989207.630   4438709.915  -4886402.282
10 0 59315   4182.000000  0    1898113.189   3737613.600  -5474346.000
10 0 59315   4302.000000  0    1761252.265   2973634.694  -5966590.481
10 0 59315   4422.000000  0    1580051.941   2160871.253  -6354627.068
10 0 59315   4542.000000  0    1356952.043   1314201.756  -6631763.570
10 0 59315   4662.000000  0    1095373.597    449014.431  -6793229.236
10 0 59315   4782.000000  0     799666.333   -419068.756  -6836248.581
10 0 59315   4902.000000  0     475036.757  -1274468.737  -6760082.873
10 0 59315   5022.000000  0     127458.549  -2101921.177  -6566039.909
10 0 59315   5142.000000  0    -236433.621  -2886740.927  -6257455.241
10 0 59315   5262.000000  0    -609467.204  -3615079.311  -5839642.276
10 0 59315   5382.000000  0    -984068.239  -4274166.616  -5319809.352
10 0 59315   5502.000000  0   -1352409.910  -4852537.921  -4706947.390
10 0 59315   5622.000000  0   -1706571.606  -5340238.823  -4011685.935
10 0 59315   5742.000000  0   -2038705.158  -5729005.663  -3246118.557
10 0 59315   5862.000000  0   -2341204.477  -6012416.074  -2423600.037
10 0 59315   5982.000000  0   -2606875.127  -6186006.798  -1558517.992
10 0 59315   6102.000000  0   -2829099.872  -6247355.401   -666041.453
10 0 59315   6222.000000  0   -3001995.826  -6196121.759    238149.485
10 0 59315   6342.000000  0   -3120558.410  -6034047.088   1138146.221
99
